start=new Date('2022-05-18T00:00:00.000Z').valueOf();
sats=[{"TLE_LINE1":"1 51125U 22005X   22137.58335648  .00008409  00000-0  54585-3 0  9991","EPOCH":"2022-05-17T14:00:01.999872","DECAY_DATE":null,"OBJECT_TYPE":"PAYLOAD","REV_AT_EPOCH":"130","TLE_LINE2":"2 51125  53.2174  68.5325 0001681  53.1427 314.0892 15.08834334  1305","EPHEMERIS_TYPE":"0","REF_FRAME":"TEME","SITE":"AFETR","ARG_OF_PERICENTER":"53.1427","PERIAPSIS":"538.600","MEAN_ANOMALY":"314.0892","MEAN_MOTION":"15.08834334","SEMIMAJOR_AXIS":"6917.898","RA_OF_ASC_NODE":"68.5325","OBJECT_NAME":"STARLINK-3387","GP_ID":"203785115","CLASSIFICATION_TYPE":"U","FILE":"3450137","CENTER_NAME":"EARTH","APOAPSIS":"540.926","TIME_SYSTEM":"UTC","INCLINATION":"53.2174","OBJECT_ID":"2022-005X","MEAN_ELEMENT_THEORY":"SGP4","BSTAR":"0.00054585000000","MEAN_MOTION_DDOT":"0.0000000000000","ELEMENT_SET_NO":"999","MEAN_MOTION_DOT":"0.00008409","COUNTRY_CODE":"US","ECCENTRICITY":"0.00016810","NORAD_CAT_ID":"51125","RCS_SIZE":"LARGE","PERIOD":"95.438","LAUNCH_DATE":"2022-01-19"},{"COUNTRY_CODE":"US","ECCENTRICITY":"0.00018450","NORAD_CAT_ID":"51126","RCS_SIZE":"LARGE","PERIOD":"95.436","LAUNCH_DATE":"2022-01-19","MEAN_MOTION_DDOT":"0.0000000000000","BSTAR":"-0.00154110000000","ELEMENT_SET_NO":"999","MEAN_MOTION_DOT":"-0.00024745","OBJECT_ID":"2022-005Y","MEAN_ELEMENT_THEORY":"SGP4","TIME_SYSTEM":"UTC","INCLINATION":"53.2197","CENTER_NAME":"EARTH","APOAPSIS":"540.958","OBJECT_NAME":"STARLINK-3386","GP_ID":"203792430","CLASSIFICATION_TYPE":"U","FILE":"3450429","SEMIMAJOR_AXIS":"6917.817","RA_OF_ASC_NODE":"67.3934","PERIAPSIS":"538.405","MEAN_ANOMALY":"188.7923","MEAN_MOTION":"15.08860860","EPHEMERIS_TYPE":"0","REF_FRAME":"TEME","ARG_OF_PERICENTER":"57.0430","SITE":"AFETR","OBJECT_TYPE":"PAYLOAD","REV_AT_EPOCH":"1973","TLE_LINE2":"2 51126  53.2197  67.3934 0001845  57.0430 188.7923 15.08860860 19733","EPOCH":"2022-05-17T20:00:01.000224","DECAY_DATE":null,"TLE_LINE1":"1 51126U 22005Y   22137.83334491 -.00024745  00000-0 -15411-2 0  9992"},{"FILE":"3450415","GP_ID":"203791637","CLASSIFICATION_TYPE":"U","OBJECT_NAME":"STARLINK-3370","CENTER_NAME":"EARTH","APOAPSIS":"540.927","MEAN_MOTION":"15.08851423","MEAN_ANOMALY":"209.3075","PERIAPSIS":"538.494","RA_OF_ASC_NODE":"67.3913","SEMIMAJOR_AXIS":"6917.845","OBJECT_TYPE":"PAYLOAD","TLE_LINE2":"2 51127  53.2191  67.3913 0001759  56.5488 209.3075 15.08851423 19739","REV_AT_EPOCH":"1973","REF_FRAME":"TEME","EPHEMERIS_TYPE":"0","SITE":"AFETR","ARG_OF_PERICENTER":"56.5488","TLE_LINE1":"1 51127U 22005Z   22137.83334491 -.00016946  00000-0 -10488-2 0  9996","DECAY_DATE":null,"EPOCH":"2022-05-17T20:00:01.000224","ECCENTRICITY":"0.00017590","COUNTRY_CODE":"US","LAUNCH_DATE":"2022-01-19","NORAD_CAT_ID":"51127","RCS_SIZE":"LARGE","PERIOD":"95.437","OBJECT_ID":"2022-005Z","MEAN_ELEMENT_THEORY":"SGP4","ELEMENT_SET_NO":"999","BSTAR":"-0.00104880000000","MEAN_MOTION_DDOT":"0.0000000000000","MEAN_MOTION_DOT":"-0.00016946","TIME_SYSTEM":"UTC","INCLINATION":"53.2191"},{"APOAPSIS":"541.016","CENTER_NAME":"EARTH","FILE":"3450415","CLASSIFICATION_TYPE":"U","GP_ID":"203791642","OBJECT_NAME":"STARLINK-3400","RA_OF_ASC_NODE":"67.4100","SEMIMAJOR_AXIS":"6917.910","MEAN_MOTION":"15.08830459","PERIAPSIS":"538.533","MEAN_ANOMALY":"320.2644","ARG_OF_PERICENTER":"45.5197","SITE":"AFETR","REF_FRAME":"TEME","EPHEMERIS_TYPE":"0","TLE_LINE2":"2 51128  53.2194  67.4100 0001795  45.5197 320.2644 15.08830459 19727","REV_AT_EPOCH":"1972","OBJECT_TYPE":"PAYLOAD","DECAY_DATE":null,"EPOCH":"2022-05-17T20:00:01.000224","TLE_LINE1":"1 51128U 22005AA  22137.83334491  .00032890  00000-0  20755-2 0  9999","LAUNCH_DATE":"2022-01-19","NORAD_CAT_ID":"51128","RCS_SIZE":"LARGE","PERIOD":"95.438","ECCENTRICITY":"0.00017950","COUNTRY_CODE":"US","MEAN_MOTION_DOT":"0.00032890","ELEMENT_SET_NO":"999","MEAN_MOTION_DDOT":"0.0000000000000","BSTAR":"0.00207550000000","OBJECT_ID":"2022-005AA","MEAN_ELEMENT_THEORY":"SGP4","TIME_SYSTEM":"UTC","INCLINATION":"53.2194"},{"LAUNCH_DATE":"2022-01-19","PERIOD":"95.438","RCS_SIZE":"LARGE","NORAD_CAT_ID":"51129","ECCENTRICITY":"0.00018710","COUNTRY_CODE":"US","MEAN_MOTION_DOT":"0.00003312","ELEMENT_SET_NO":"999","MEAN_MOTION_DDOT":"0.0000000000000","BSTAR":"0.00022615000000","MEAN_ELEMENT_THEORY":"SGP4","OBJECT_ID":"2022-005AB","TIME_SYSTEM":"UTC","INCLINATION":"53.2208","APOAPSIS":"541.061","CENTER_NAME":"EARTH","FILE":"3450137","OBJECT_NAME":"STARLINK-3396","GP_ID":"203785605","CLASSIFICATION_TYPE":"U","RA_OF_ASC_NODE":"68.5247","SEMIMAJOR_AXIS":"6917.902","MEAN_MOTION":"15.08832982","PERIAPSIS":"538.473","MEAN_ANOMALY":"252.6136","SITE":"AFETR","ARG_OF_PERICENTER":"49.4503","REF_FRAME":"TEME","EPHEMERIS_TYPE":"0","TLE_LINE2":"2 51129  53.2208  68.5247 0001871  49.4503 252.6136 15.08832982  1309","REV_AT_EPOCH":"130","OBJECT_TYPE":"PAYLOAD","DECAY_DATE":null,"EPOCH":"2022-05-17T14:00:01.999872","TLE_LINE1":"1 51129U 22005AB  22137.58335648  .00003312  00000-0  22615-3 0  9992"},{"TIME_SYSTEM":"UTC","INCLINATION":"53.2175","OBJECT_ID":"2022-005AC","MEAN_ELEMENT_THEORY":"SGP4","ELEMENT_SET_NO":"999","MEAN_MOTION_DDOT":"0.0000000000000","BSTAR":"0.00133390000000","MEAN_MOTION_DOT":"0.00021001","ECCENTRICITY":"0.00017260","COUNTRY_CODE":"US","LAUNCH_DATE":"2022-01-19","RCS_SIZE":"LARGE","PERIOD":"95.438","NORAD_CAT_ID":"51130","TLE_LINE1":"1 51130U 22005AC  22137.58335648  .00021001  00000-0  13339-2 0  9991","DECAY_DATE":null,"EPOCH":"2022-05-17T14:00:01.999872","OBJECT_TYPE":"PAYLOAD","TLE_LINE2":"2 51130  53.2175  68.5325 0001726  52.3809 334.8362 15.08833156  1300","REV_AT_EPOCH":"130","REF_FRAME":"TEME","EPHEMERIS_TYPE":"0","SITE":"AFETR","ARG_OF_PERICENTER":"52.3809","MEAN_MOTION":"15.08833156","MEAN_ANOMALY":"334.8362","PERIAPSIS":"538.572","SEMIMAJOR_AXIS":"6917.901","RA_OF_ASC_NODE":"68.5325","FILE":"3450137","CLASSIFICATION_TYPE":"U","GP_ID":"203784355","OBJECT_NAME":"STARLINK-3395","APOAPSIS":"540.960","CENTER_NAME":"EARTH"},{"CLASSIFICATION_TYPE":"U","GP_ID":"203784114","OBJECT_NAME":"STARLINK-3388","FILE":"3450137","CENTER_NAME":"EARTH","APOAPSIS":"540.915","PERIAPSIS":"538.524","MEAN_ANOMALY":"23.9503","MEAN_MOTION":"15.08848484","SEMIMAJOR_AXIS":"6917.854","RA_OF_ASC_NODE":"68.5356","REV_AT_EPOCH":"130","TLE_LINE2":"2 51131  53.2187  68.5356 0001728  43.2756  23.9503 15.08848484  1303","OBJECT_TYPE":"PAYLOAD","SITE":"AFETR","ARG_OF_PERICENTER":"43.2756","EPHEMERIS_TYPE":"0","REF_FRAME":"TEME","TLE_LINE1":"1 51131U 22005AD  22137.58335648 -.00011813  00000-0 -72515-3 0  9996","EPOCH":"2022-05-17T14:00:01.999872","DECAY_DATE":null,"RCS_SIZE":"LARGE","PERIOD":"95.437","NORAD_CAT_ID":"51131","LAUNCH_DATE":"2022-01-19","COUNTRY_CODE":"US","ECCENTRICITY":"0.00017280","OBJECT_ID":"2022-005AD","MEAN_ELEMENT_THEORY":"SGP4","MEAN_MOTION_DOT":"-0.00011813","BSTAR":"-0.00072515000000","MEAN_MOTION_DDOT":"0.0000000000000","ELEMENT_SET_NO":"999","INCLINATION":"53.2187","TIME_SYSTEM":"UTC"},{"INCLINATION":"53.2180","TIME_SYSTEM":"UTC","MEAN_ELEMENT_THEORY":"SGP4","OBJECT_ID":"2022-005AE","ELEMENT_SET_NO":"999","MEAN_MOTION_DDOT":"0.0000000000000","BSTAR":"0.00151500000000","MEAN_MOTION_DOT":"0.00023895","ECCENTRICITY":"0.00016190","COUNTRY_CODE":"US","LAUNCH_DATE":"2022-01-19","RCS_SIZE":"LARGE","PERIOD":"95.439","NORAD_CAT_ID":"51132","TLE_LINE1":"1 51132U 22005AE  22137.83334491  .00023895  00000-0  15150-2 0  9992","DECAY_DATE":null,"EPOCH":"2022-05-17T20:00:01.000224","OBJECT_TYPE":"PAYLOAD","TLE_LINE2":"2 51132  53.2180  67.4119 0001619  61.9412 263.9562 15.08824651 19723","REV_AT_EPOCH":"1972","REF_FRAME":"TEME","EPHEMERIS_TYPE":"0","SITE":"AFETR","ARG_OF_PERICENTER":"61.9412","MEAN_MOTION":"15.08824651","MEAN_ANOMALY":"263.9562","PERIAPSIS":"538.672","SEMIMAJOR_AXIS":"6917.927","RA_OF_ASC_NODE":"67.4119","FILE":"3450411","GP_ID":"203791682","CLASSIFICATION_TYPE":"U","OBJECT_NAME":"STARLINK-3393","CENTER_NAME":"EARTH","APOAPSIS":"540.912"},{"OBJECT_ID":"2022-005AF","MEAN_ELEMENT_THEORY":"SGP4","ELEMENT_SET_NO":"999","MEAN_MOTION_DDOT":"0.0000000000000","BSTAR":"0.00142740000000","MEAN_MOTION_DOT":"0.00022502","ECCENTRICITY":"0.00016990","COUNTRY_CODE":"US","LAUNCH_DATE":"2022-01-19","RCS_SIZE":"LARGE","NORAD_CAT_ID":"51133","PERIOD":"95.438","TIME_SYSTEM":"UTC","INCLINATION":"53.2199","MEAN_MOTION":"15.08839580","PERIAPSIS":"538.571","MEAN_ANOMALY":"330.5473","SEMIMAJOR_AXIS":"6917.882","RA_OF_ASC_NODE":"67.4119","FILE":"3450411","GP_ID":"203791676","CLASSIFICATION_TYPE":"U","OBJECT_NAME":"STARLINK-3356","APOAPSIS":"540.922","CENTER_NAME":"EARTH","TLE_LINE1":"1 51133U 22005AF  22137.83334491  .00022502  00000-0  14274-2 0  9993","DECAY_DATE":null,"EPOCH":"2022-05-17T20:00:01.000224","OBJECT_TYPE":"PAYLOAD","TLE_LINE2":"2 51133  53.2199  67.4119 0001699  55.3099 330.5473 15.08839580 19729","REV_AT_EPOCH":"1972","REF_FRAME":"TEME","EPHEMERIS_TYPE":"0","SITE":"AFETR","ARG_OF_PERICENTER":"55.3099"},{"RCS_SIZE":"LARGE","PERIOD":"94.746","NORAD_CAT_ID":"51134","LAUNCH_DATE":"2022-01-19","COUNTRY_CODE":"US","ECCENTRICITY":"0.00017410","MEAN_MOTION_DOT":"-0.00418237","BSTAR":"-0.02037000000000","MEAN_MOTION_DDOT":"0.0000000000000","ELEMENT_SET_NO":"999","OBJECT_ID":"2022-005AG","MEAN_ELEMENT_THEORY":"SGP4","TIME_SYSTEM":"UTC","INCLINATION":"53.2175","APOAPSIS":"507.474","CENTER_NAME":"EARTH","GP_ID":"203783866","OBJECT_NAME":"STARLINK-3183","CLASSIFICATION_TYPE":"U","FILE":"3450137","RA_OF_ASC_NODE":"58.9730","SEMIMAJOR_AXIS":"6884.411","PERIAPSIS":"505.077","MEAN_ANOMALY":"350.7014","MEAN_MOTION":"15.19856557","ARG_OF_PERICENTER":"37.2283","SITE":"AFETR","EPHEMERIS_TYPE":"0","REF_FRAME":"TEME","REV_AT_EPOCH":"130","TLE_LINE2":"2 51134  53.2175  58.9730 0001741  37.2283 350.7014 15.19856557  1305","OBJECT_TYPE":"PAYLOAD","EPOCH":"2022-05-17T14:00:01.999872","DECAY_DATE":null,"TLE_LINE1":"1 51134U 22005AG  22137.58335648 -.00418237  00000-0 -20370-1 0  9990"}];
